start=new Date('2023-03-08T00:00:00.000Z').valueOf();
sats=[{"FILE":"3854072","APOAPSIS":"540.264","GP_ID":"227675139","ELEMENT_SET_NO":"999","REV_AT_EPOCH":"6464","CENTER_NAME":"EARTH","MEAN_MOTION_DDOT":"0.0000000000000","TLE_LINE1":"1 50824U 22001X   23066.67786108  .00013959  00000-0  89326-3 0  9992","OBJECT_NAME":"STARLINK-3340","ECCENTRICITY":"0.00007730","PERIOD":"95.437","OBJECT_ID":"2022-001X","NORAD_CAT_ID":"50824","MEAN_MOTION_DOT":"0.00013959","ARG_OF_PERICENTER":"91.9110","MEAN_ELEMENT_THEORY":"SGP4","RCS_SIZE":"LARGE","EPHEMERIS_TYPE":"0","BSTAR":"0.00089326000000","COUNTRY_CODE":"US","PERIAPSIS":"539.195","TLE_LINE2":"2 50824  53.2137  58.2857 0000773  91.9110 268.1971 15.08845224 64648","CLASSIFICATION_TYPE":"U","MEAN_ANOMALY":"268.1971","REF_FRAME":"TEME","MEAN_MOTION":"15.08845224","TIME_SYSTEM":"UTC","EPOCH":"2023-03-07T16:16:07.197312","LAUNCH_DATE":"2022-01-06","OBJECT_TYPE":"PAYLOAD","RA_OF_ASC_NODE":"58.2857","SEMIMAJOR_AXIS":"6917.864","INCLINATION":"53.2137","SITE":"AFETR","DECAY_DATE":null},{"MEAN_ELEMENT_THEORY":"SGP4","RCS_SIZE":"LARGE","EPHEMERIS_TYPE":"0","MEAN_MOTION_DOT":"0.00012235","ARG_OF_PERICENTER":"113.8302","PERIOD":"95.437","OBJECT_ID":"2022-001Y","NORAD_CAT_ID":"50825","TLE_LINE1":"1 50825U 22001Y   23066.95018395  .00012235  00000-0  78544-3 0  9996","OBJECT_NAME":"STARLINK-3332","ECCENTRICITY":"0.00007200","REV_AT_EPOCH":"6468","CENTER_NAME":"EARTH","MEAN_MOTION_DDOT":"0.0000000000000","ELEMENT_SET_NO":"999","APOAPSIS":"540.237","FILE":"3854072","GP_ID":"227675387","DECAY_DATE":null,"SITE":"AFETR","SEMIMAJOR_AXIS":"6917.874","INCLINATION":"53.2151","EPOCH":"2023-03-07T22:48:15.893280","LAUNCH_DATE":"2022-01-06","OBJECT_TYPE":"PAYLOAD","RA_OF_ASC_NODE":"57.0610","TIME_SYSTEM":"UTC","MEAN_MOTION":"15.08842206","CLASSIFICATION_TYPE":"U","MEAN_ANOMALY":"246.2766","REF_FRAME":"TEME","COUNTRY_CODE":"US","BSTAR":"0.00078544000000","PERIAPSIS":"539.241","TLE_LINE2":"2 50825  53.2151  57.0610 0000720 113.8302 246.2766 15.08842206 64688"},{"MEAN_ELEMENT_THEORY":"SGP4","RCS_SIZE":"LARGE","EPHEMERIS_TYPE":"0","MEAN_MOTION_DOT":"0.00026431","ARG_OF_PERICENTER":"80.7054","PERIOD":"95.436","OBJECT_ID":"2022-001Z","NORAD_CAT_ID":"50826","OBJECT_NAME":"STARLINK-3337","TLE_LINE1":"1 50826U 22001Z   23066.92810088  .00026431  00000-0  16716-2 0  9998","ECCENTRICITY":"0.00026180","REV_AT_EPOCH":"6468","MEAN_MOTION_DDOT":"0.0000000000000","CENTER_NAME":"EARTH","ELEMENT_SET_NO":"999","FILE":"3854072","APOAPSIS":"541.497","GP_ID":"227676124","DECAY_DATE":null,"SITE":"AFETR","SEMIMAJOR_AXIS":"6917.821","INCLINATION":"53.2178","LAUNCH_DATE":"2022-01-06","EPOCH":"2023-03-07T22:16:27.916032","OBJECT_TYPE":"PAYLOAD","RA_OF_ASC_NODE":"57.1626","MEAN_MOTION":"15.08859324","TIME_SYSTEM":"UTC","CLASSIFICATION_TYPE":"U","MEAN_ANOMALY":"279.4235","REF_FRAME":"TEME","COUNTRY_CODE":"US","BSTAR":"0.00167160000000","PERIAPSIS":"537.875","TLE_LINE2":"2 50826  53.2178  57.1626 0002618  80.7054 279.4235 15.08859324 64688"},{"MEAN_ANOMALY":"263.5183","CLASSIFICATION_TYPE":"U","REF_FRAME":"TEME","PERIAPSIS":"538.701","COUNTRY_CODE":"US","BSTAR":"0.00067256000000","TLE_LINE2":"2 50827  53.2162  58.1991 0001542  96.5985 263.5183 15.08832557 64642","LAUNCH_DATE":"2022-01-06","EPOCH":"2023-03-07T16:42:37.516320","RA_OF_ASC_NODE":"58.1991","OBJECT_TYPE":"PAYLOAD","TIME_SYSTEM":"UTC","MEAN_MOTION":"15.08832557","SITE":"AFETR","SEMIMAJOR_AXIS":"6917.903","INCLINATION":"53.2162","DECAY_DATE":null,"ELEMENT_SET_NO":"999","APOAPSIS":"540.835","FILE":"3854072","GP_ID":"227674391","REV_AT_EPOCH":"6464","CENTER_NAME":"EARTH","MEAN_MOTION_DDOT":"0.0000000000000","OBJECT_ID":"2022-001AA","PERIOD":"95.438","NORAD_CAT_ID":"50827","ECCENTRICITY":"0.00015420","TLE_LINE1":"1 50827U 22001AA  23066.69626755  .00010430  00000-0  67256-3 0  9997","OBJECT_NAME":"STARLINK-3329","MEAN_ELEMENT_THEORY":"SGP4","EPHEMERIS_TYPE":"0","RCS_SIZE":"LARGE","MEAN_MOTION_DOT":"0.00010430","ARG_OF_PERICENTER":"96.5985"},{"RCS_SIZE":"LARGE","EPHEMERIS_TYPE":"0","MEAN_ELEMENT_THEORY":"SGP4","ARG_OF_PERICENTER":"35.9743","MEAN_MOTION_DOT":"0.00009563","NORAD_CAT_ID":"50828","PERIOD":"95.438","OBJECT_ID":"2022-001AB","OBJECT_NAME":"STARLINK-3290","TLE_LINE1":"1 50828U 22001AB  23066.95850538  .00009563  00000-0  61830-3 0  9992","ECCENTRICITY":"0.00014520","MEAN_MOTION_DDOT":"0.0000000000000","CENTER_NAME":"EARTH","REV_AT_EPOCH":"6453","ELEMENT_SET_NO":"999","GP_ID":"227674640","FILE":"3854072","APOAPSIS":"540.784","DECAY_DATE":null,"SITE":"AFETR","INCLINATION":"53.2158","SEMIMAJOR_AXIS":"6917.915","OBJECT_TYPE":"PAYLOAD","RA_OF_ASC_NODE":"57.0322","LAUNCH_DATE":"2022-01-06","EPOCH":"2023-03-07T23:00:14.864832","MEAN_MOTION":"15.08828762","TIME_SYSTEM":"UTC","REF_FRAME":"TEME","CLASSIFICATION_TYPE":"U","MEAN_ANOMALY":"324.1347","TLE_LINE2":"2 50828  53.2158  57.0322 0001452  35.9743 324.1347 15.08828762 64530","BSTAR":"0.00061830000000","COUNTRY_CODE":"US","PERIAPSIS":"538.775"},{"APOAPSIS":"540.493","FILE":"3854072","GP_ID":"227675886","ELEMENT_SET_NO":"999","REV_AT_EPOCH":"6464","MEAN_MOTION_DDOT":"0.0000000000000","CENTER_NAME":"EARTH","OBJECT_NAME":"STARLINK-3294","TLE_LINE1":"1 50829U 22001AC  23066.70361973  .00012253  00000-0  78653-3 0  9997","ECCENTRICITY":"0.00010890","OBJECT_ID":"2022-001AC","PERIOD":"95.437","NORAD_CAT_ID":"50829","MEAN_MOTION_DOT":"0.00012253","ARG_OF_PERICENTER":"100.6661","MEAN_ELEMENT_THEORY":"SGP4","RCS_SIZE":"LARGE","EPHEMERIS_TYPE":"0","BSTAR":"0.00078653000000","COUNTRY_CODE":"US","PERIAPSIS":"538.986","TLE_LINE2":"2 50829  53.2137  58.1675 0001089 100.6661 259.4454 15.08842012 64641","CLASSIFICATION_TYPE":"U","MEAN_ANOMALY":"259.4454","REF_FRAME":"TEME","MEAN_MOTION":"15.08842012","TIME_SYSTEM":"UTC","LAUNCH_DATE":"2022-01-06","EPOCH":"2023-03-07T16:53:12.744672","OBJECT_TYPE":"PAYLOAD","RA_OF_ASC_NODE":"58.1675","SEMIMAJOR_AXIS":"6917.874","INCLINATION":"53.2137","SITE":"AFETR","DECAY_DATE":null},{"TIME_SYSTEM":"UTC","MEAN_MOTION":"15.08835879","LAUNCH_DATE":"2022-01-06","EPOCH":"2023-03-07T17:18:23.528160","OBJECT_TYPE":"PAYLOAD","RA_OF_ASC_NODE":"68.0888","COUNTRY_CODE":"US","BSTAR":"0.00070054000000","PERIAPSIS":"538.719","TLE_LINE2":"2 50830  53.2163  68.0888 0001502  94.2223 265.8941 15.08835879 64511","CLASSIFICATION_TYPE":"U","MEAN_ANOMALY":"265.8941","REF_FRAME":"TEME","DECAY_DATE":null,"SEMIMAJOR_AXIS":"6917.893","INCLINATION":"53.2163","SITE":"AFETR","REV_AT_EPOCH":"6451","MEAN_MOTION_DDOT":"0.0000000000000","CENTER_NAME":"EARTH","FILE":"3854072","APOAPSIS":"540.797","GP_ID":"227675626","ELEMENT_SET_NO":"999","MEAN_MOTION_DOT":"0.00010877","ARG_OF_PERICENTER":"94.2223","MEAN_ELEMENT_THEORY":"SGP4","RCS_SIZE":"LARGE","EPHEMERIS_TYPE":"0","OBJECT_NAME":"STARLINK-3278","TLE_LINE1":"1 50830U 22001AD  23066.72110565  .00010877  00000-0  70054-3 0  9997","ECCENTRICITY":"0.00015020","OBJECT_ID":"2022-001AD","PERIOD":"95.438","NORAD_CAT_ID":"50830"},{"EPOCH":"2023-03-07T16:00:14.494752","LAUNCH_DATE":"2022-01-06","RA_OF_ASC_NODE":"58.3996","OBJECT_TYPE":"PAYLOAD","MEAN_MOTION":"15.08824875","TIME_SYSTEM":"UTC","MEAN_ANOMALY":"276.9609","CLASSIFICATION_TYPE":"U","REF_FRAME":"TEME","PERIAPSIS":"538.193","BSTAR":"0.00171690000000","COUNTRY_CODE":"US","TLE_LINE2":"2 50831  53.2154  58.3996 0002311  83.1646 276.9609 15.08824875 64641","DECAY_DATE":null,"SITE":"AFETR","SEMIMAJOR_AXIS":"6917.927","INCLINATION":"53.2154","REV_AT_EPOCH":"6464","CENTER_NAME":"EARTH","MEAN_MOTION_DDOT":"0.0000000000000","ELEMENT_SET_NO":"999","FILE":"3854072","APOAPSIS":"541.390","GP_ID":"227674891","MEAN_ELEMENT_THEORY":"SGP4","EPHEMERIS_TYPE":"0","RCS_SIZE":"LARGE","MEAN_MOTION_DOT":"0.00027131","ARG_OF_PERICENTER":"83.1646","OBJECT_ID":"2022-001AE","PERIOD":"95.439","NORAD_CAT_ID":"50831","ECCENTRICITY":"0.00023110","OBJECT_NAME":"STARLINK-3299","TLE_LINE1":"1 50831U 22001AE  23066.66683443  .00027131  00000-0  17169-2 0  9999"},{"ECCENTRICITY":"0.00013820","OBJECT_NAME":"STARLINK-3328","TLE_LINE1":"1 50832U 22001AF  23066.71742410  .00002378  00000-0  16742-3 0  9999","PERIOD":"95.437","OBJECT_ID":"2022-001AF","NORAD_CAT_ID":"50832","MEAN_MOTION_DOT":"0.00002378","ARG_OF_PERICENTER":"85.9850","MEAN_ELEMENT_THEORY":"SGP4","EPHEMERIS_TYPE":"0","RCS_SIZE":"LARGE","APOAPSIS":"540.697","FILE":"3854072","GP_ID":"227675140","ELEMENT_SET_NO":"999","REV_AT_EPOCH":"6451","MEAN_MOTION_DDOT":"0.0000000000000","CENTER_NAME":"EARTH","SEMIMAJOR_AXIS":"6917.875","INCLINATION":"53.2151","SITE":"AFETR","DECAY_DATE":null,"PERIAPSIS":"538.784","BSTAR":"0.00016742000000","COUNTRY_CODE":"US","TLE_LINE2":"2 50832  53.2151  68.1072 0001382  85.9850 274.1300 15.08841609 64515","MEAN_ANOMALY":"274.1300","CLASSIFICATION_TYPE":"U","REF_FRAME":"TEME","MEAN_MOTION":"15.08841609","TIME_SYSTEM":"UTC","LAUNCH_DATE":"2022-01-06","EPOCH":"2023-03-07T17:13:05.442240","RA_OF_ASC_NODE":"68.1072","OBJECT_TYPE":"PAYLOAD"},{"MEAN_ELEMENT_THEORY":"SGP4","EPHEMERIS_TYPE":"0","RCS_SIZE":"LARGE","MEAN_MOTION_DOT":"0.00053761","ARG_OF_PERICENTER":"77.4139","PERIOD":"95.197","OBJECT_ID":"2022-001AG","NORAD_CAT_ID":"50833","ECCENTRICITY":"0.00046000","OBJECT_NAME":"STARLINK-3316","TLE_LINE1":"1 50833U 22001AG  23066.67567645  .00053761  00000-0  30338-2 0  9998","REV_AT_EPOCH":"6465","CENTER_NAME":"EARTH","MEAN_MOTION_DDOT":"0.0000000000000","ELEMENT_SET_NO":"999","APOAPSIS":"531.305","FILE":"3854072","GP_ID":"227675388","DECAY_DATE":null,"SITE":"AFETR","SEMIMAJOR_AXIS":"6906.263","INCLINATION":"53.2158","LAUNCH_DATE":"2022-01-06","EPOCH":"2023-03-07T16:12:58.445280","RA_OF_ASC_NODE":"57.7079","OBJECT_TYPE":"PAYLOAD","MEAN_MOTION":"15.12648817","TIME_SYSTEM":"UTC","MEAN_ANOMALY":"282.7369","CLASSIFICATION_TYPE":"U","REF_FRAME":"TEME","PERIAPSIS":"524.951","COUNTRY_CODE":"US","BSTAR":"0.00303380000000","TLE_LINE2":"2 50833  53.2158  57.7079 0004600  77.4139 282.7369 15.12648817 64652"}];
